Skip Page Navigation
NASA Logo - Jet Propulsion Laboratory				+ View the NASA Portal
+ Center for Near-Earth Object Studies			
JPL Home	Earth	Solar System	Stars & Galaxies	Technology

JPL Solar System Dynamics
BODIES		ORBITS		EPHEMERIDES		TOOLS		PHYSICAL DATA		DISCOVERY		FAQ		SITE MAP

IMPORTANT: The SSD Announcement email list is now available. Major changes are coming in the near future, including possible hostname and/or URL changes. To be notified of such changes, subscribe to this email list.

Please visit this page for more details.


Don't show this message again
HORIZONS Web-Interface
This tool provides a web-based limited interface to JPL's HORIZONS system which can be used to generate ephemerides for solar-system bodies. Full access to HORIZONS features is available via the primary telnet interface. HORIZONS system news shows recent changes and improvements. A web-interface tutorial is available to assist new users.
Current Settings
Ephemeris Type [change] : 	ELEMENTS
Target Body [change] : 	Tethys (SIII) [603]
Center [change] : 	Saturn System Barycenter [500@6]
Time Span [change] : 	Start=JD 2458850.0, Stop=JD 2464329.0, Intervals=500
Table Settings [change] : 	CSV format=YES
Display/Output [change] : 	default (formatted HTML)
Object Data Page
 Revised: Jan 23, 2020            Tethys  / (Saturn)                        603
                          http://ssd.jpl.nasa.gov/?sat_phys_par
                            http://ssd.jpl.nasa.gov/?sat_elem

 SATELLITE PHYSICAL PROPERTIES:
  Mean Radius (km)       = 536.3  +- 1.5     Density (g/cm^3)  =  0.956+- 0.008
  Mass (10^19 kg)        =  61.76 +- 0.11    Geometric Albedo  =  0.80
  GM (km^3/s^2)          =  41.21 +- 0.007   V(1,0)            = +0.7

 SATELLITE ORBITAL DATA (mean values with respect to local Laplace plane):
  Semi-major axis, a (km)=  294.670(10^3)    Orbital period    =  1.888 d
  Eccentricity, e        =     0.0001        Rotational period = Synchronous
  Inclination, i  (deg)  =     1.091
Results
*******************************************************************************
Ephemeris / WWW_USER Fri May 15 20:14:56 2020 Pasadena, USA      / Horizons    
*******************************************************************************
Target body name: Tethys (603)                    {source: sat427l_merged_DE438}
Center body name: Saturn Barycenter (6)           {source: sat427l_merged_DE438}
Center-site name: BODY CENTER
*******************************************************************************
Start time      : A.D. 2020-Jan-01 12:00:00.0000 TDB
Stop  time      : A.D. 2035-Jan-01 12:00:00.0000 TDB
Step-size       : 500 steps
*******************************************************************************
Center geodetic : 0.00000000,0.00000000,0.0000000 {E-lon(deg),Lat(deg),Alt(km)}
Center cylindric: 0.00000000,0.00000000,0.0000000 {E-lon(deg),Dxy(km),Dz(km)}
Center radii    : (undefined)                                                  
Keplerian GM    : 8.4596785044773792E-08 au^3/d^2
Output units    : AU-D, deg, Julian Day Number (Tp)                            
Output type     : GEOMETRIC osculating elements
Output format   : 10
Reference frame : ICRF/J2000.0                                                 
Coordinate systm: Ecliptic and Mean Equinox of Reference Epoch                 
*******************************************************************************
            JDTDB,            Calendar Date (TDB),                     EC,                     QR,                     IN,                     OM,                      W,                     Tp,                      N,                     MA,                     TA,                      A,                     AD,                     PR,
**************************************************************************************************************************************************************************************************************************************************************************************************************************************************
$$SOE
2464066.008000000, A.D. 2034-Apr-13 12:11:31.2000,  6.775501469090407E-04,  1.967092191476548E-03,  2.792951380782023E+01,  1.672077578390962E+02,  1.040323498598701E+02,  2.464066542289091E+06,  1.908187102487598E+02,  2.580476448040519E+02,  2.579716998758383E+02,  1.968425898733415E-03,  1.969759605990281E-03,  1.886607448141159E+00,
2464076.966000000, A.D. 2034-Apr-24 11:11:02.4000,  3.291509391324035E-04,  1.966514441502869E-03,  2.788870278971647E+01,  1.672158803019702E+02,  1.016747466267316E+02,  2.464077855826573E+06,  1.910026504120830E+02,  1.900407663490097E+02,  1.900341929370571E+02,  1.967161934701101E-03,  1.967809427899333E-03,  1.884790599624193E+00,
2464087.924000000, A.D. 2034-May-05 10:10:33.6000,  4.685549118530495E-04,  1.966805771333832E-03,  2.784735942727001E+01,  1.672298565961561E+02,  1.154657816873117E+02,  2.464087369489306E+06,  1.909202713854024E+02,  1.058673322709014E+02,  1.059189706086205E+02,  1.967727759840895E-03,  1.968649748347958E-03,  1.885603856456310E+00,
2464098.882000000, A.D. 2034-May-16 09:10:04.8000,  8.697660283772616E-04,  1.968369431137186E-03,  2.780808669432457E+01,  1.672493507573792E+02,  9.946459951266817E+01,  2.464098611792192E+06,  1.905780134571678E+02,  5.149566732985878E+01,  5.157371630968825E+01,  1.970082942353531E-03,  1.971796453569876E-03,  1.888990201280011E+00,
2464109.840000000, A.D. 2034-May-27 08:09:36.0000,  1.293539527603210E-03,  1.970510930172804E-03,  2.776777753640761E+01,  1.672652656362680E+02,  4.838852589080440E+01,  2.464109670478976E+06,  1.901463872936540E+02,  3.223381028430335E+01,  3.231298010173292E+01,  1.973063165367665E-03,  1.975615400562526E-03,  1.893278148082989E+00,
2464120.798000000, A.D. 2034-Jun-07 07:09:07.2000,  1.842477128193035E-03,  1.971606111046673E-03,  2.772659128155080E+01,  1.672927212164876E+02,  3.573055801260875E+02,  2.464120729635132E+06,  1.898313581111302E+02,  1.297779579998036E+01,  1.302531714714084E+01,  1.975245455621222E-03,  1.978884800195771E-03,  1.896420083499853E+00,
2464131.756000000, A.D. 2034-Jun-18 06:08:38.4000,  1.968704243381230E-03,  1.971320299564596E-03,  2.768866416205793E+01,  1.673169098847185E+02,  3.036346371902610E+02,  2.464131775349779E+06,  1.898366277642751E+02,  3.563267032816535E+02,  3.563122143392125E+02,  1.975208901710958E-03,  1.979097503857321E-03,  1.896367440992583E+00,
2464142.714000000, A.D. 2034-Jun-29 05:08:09.6000,  1.705965173239821E-03,  1.970122147208841E-03,  2.764792615686268E+01,  1.673458597752663E+02,  2.588866466527463E+02,  2.464142867932462E+06,  1.900848682354734E+02,  3.307397682973181E+02,  3.306440396268613E+02,  1.973488850457498E-03,  1.976855553706156E-03,  1.893890888537424E+00,
2464153.672000000, A.D. 2034-Jul-10 04:07:40.8000,  1.159062117402444E-03,  1.968257478803071E-03,  2.761024467594966E+01,  1.673795219455827E+02,  2.154989758035870E+02,  2.464153967215500E+06,  1.905115002190045E+02,  3.037580522062505E+02,  3.036475389331746E+02,  1.970541458758690E-03,  1.972825438714308E-03,  1.889649704013448E+00,
2464164.630000000, A.D. 2034-Jul-21 03:07:12.0000,  6.784811882691034E-04,  1.966172195509924E-03,  2.757279307210896E+01,  1.674138063049675E+02,  2.219344552346074E+02,  2.464165326804824E+06,  1.909523886614719E+02,  2.269434544209839E+02,  2.268866782165279E+02,  1.967507112073251E-03,  1.968842028636578E-03,  1.885286706929980E+00,
2464175.588000000, A.D. 2034-Aug-01 02:06:43.2000,  5.461800216167981E-04,  1.965872591636492E-03,  2.753533176862082E+01,  1.674523045653369E+02,  2.166994376134755E+02,  2.464174741137155E+06,  1.910339732417447E+02,  1.617795742254264E+02,  1.617991310363199E+02,  1.966946898736163E-03,  1.968021205835834E-03,  1.884481560483676E+00,
2464186.546000000, A.D. 2034-Aug-12 01:06:14.4000,  8.480003331404817E-04,  1.966897542386228E-03,  2.749936756216199E+01,  1.674964691431808E+02,  2.237786636585910E+02,  2.464186104203344E+06,  1.907982109226657E+02,  8.429401162666225E+01,  8.439071397461527E+01,  1.968566887762860E-03,  1.970236233139492E-03,  1.886810144912287E+00,
2464197.504000000, A.D. 2034-Aug-23 00:05:45.6000,  1.207435103256371E-03,  1.969126772540178E-03,  2.746386520431999E+01,  1.675404735618476E+02,  1.969802732969008E+02,  2.464197290159901E+06,  1.903715287677135E+02,  4.070906653136156E+01,  4.079941200574283E+01,  1.971507239587579E-03,  1.973887706634981E-03,  1.891039076747989E+00,
2464208.462000000, A.D. 2034-Sep-02 23:05:16.8000,  1.816907339380881E-03,  1.970972667350004E-03,  2.742868830568145E+01,  1.675917822937912E+02,  1.542975440777657E+02,  2.464208393458611E+06,  1.899301771971437E+02,  1.301807822498062E+01,  1.306508153904516E+01,  1.974560260379137E-03,  1.978147853408270E-03,  1.895433391958179E+00,
2464219.420000000, A.D. 2034-Sep-13 22:04:48.0000,  1.876703590791346E-03,  1.972066700684252E-03,  2.739526834141677E+01,  1.676414255082036E+02,  9.514077582665978E+01,  2.464219410412038E+06,  1.897550970110329E+02,  1.819364793487446E+00,  1.826208507741873E+00,  1.975774644053341E-03,  1.979482587422431E-03,  1.897182240006278E+00,
2464230.378000000, A.D. 2034-Sep-24 21:04:19.2000,  1.646772042022885E-03,  1.971062238251135E-03,  2.736110596925732E+01,  1.676978989177759E+02,  4.325100095917119E+01,  2.464230465628026E+06,  1.899657885871578E+02,  3.433536731403791E+02,  3.432995089724170E+02,  1.974313482496298E-03,  1.977564726741462E-03,  1.895078069990635E+00,
2464241.336000000, A.D. 2034-Oct-05 20:03:50.4000,  1.230686551099952E-03,  1.969377040223890E-03,  2.733015602285932E+01,  1.677537601853162E+02,  3.532529082594722E+02,  2.464241530495545E+06,  1.903285950673381E+02,  3.229819362093846E+02,  3.228969245814621E+02,  1.971803712534315E-03,  1.974230384844740E-03,  1.891465651142080E+00,
